[
    {
        "OBJECT_NAME": "GSLV R/B",
        "OBJECT_ID": "2022-138AN",
        "EPOCH": "2026-05-01T19:09:46.361664",
        "MEAN_MOTION": 14.97052764,
        "ECCENTRICITY": 0.00196095,
        "INCLINATION": 87.3801,
        "RA_OF_ASC_NODE": 148.5638,
        "ARG_OF_PERICENTER": 324.4932,
        "MEAN_ANOMALY": 35.4993,
        "EPHEMERIS_TYPE": 0,
        "CLASSIFICATION_TYPE": "U",
        "NORAD_CAT_ID": 54149,
        "ELEMENT_SET_NO": 999,
        "REV_AT_EPOCH": 19187,
        "BSTAR": 0.00020635691,
        "MEAN_MOTION_DOT": 2.413e-05,
        "MEAN_MOTION_DDOT": 0
    },
    {
        "OBJECT_NAME": "XRISM",
        "OBJECT_ID": "2023-137A",
        "EPOCH": "2026-05-02T04:27:50.236704",
        "MEAN_MOTION": 15.12074389,
        "ECCENTRICITY": 0.0007612,
        "INCLINATION": 31.0022,
        "RA_OF_ASC_NODE": 297.4864,
        "ARG_OF_PERICENTER": 220.4009,
        "MEAN_ANOMALY": 139.6064,
        "EPHEMERIS_TYPE": 0,
        "CLASSIFICATION_TYPE": "U",
        "NORAD_CAT_ID": 57800,
        "ELEMENT_SET_NO": 999,
        "REV_AT_EPOCH": 14589,
        "BSTAR": 0.00035557,
        "MEAN_MOTION_DOT": 6.373e-05,
        "MEAN_MOTION_DDOT": 0
    },
    {
        "OBJECT_NAME": "ACS3",
        "OBJECT_ID": "2024-077B",
        "EPOCH": "2026-05-02T09:07:19.102080",
        "MEAN_MOTION": 13.9196306,
        "ECCENTRICITY": 0.0053853,
        "INCLINATION": 97.1807,
        "RA_OF_ASC_NODE": 51.432,
        "ARG_OF_PERICENTER": 342.4802,
        "MEAN_ANOMALY": 17.4504,
        "EPHEMERIS_TYPE": 0,
        "CLASSIFICATION_TYPE": "U",
        "NORAD_CAT_ID": 59588,
        "ELEMENT_SET_NO": 999,
        "REV_AT_EPOCH": 10166,
        "BSTAR": 0.033819,
        "MEAN_MOTION_DOT": 0.00043871,
        "MEAN_MOTION_DDOT": 0
    },
    {
        "OBJECT_NAME": "HTV-X1",
        "OBJECT_ID": "2025-241A",
        "EPOCH": "2026-05-02T09:29:09.042720",
        "MEAN_MOTION": 15.63190788,
        "ECCENTRICITY": 0.0007326,
        "INCLINATION": 51.6342,
        "RA_OF_ASC_NODE": 171.9506,
        "ARG_OF_PERICENTER": 16.4549,
        "MEAN_ANOMALY": 343.6682,
        "EPHEMERIS_TYPE": 0,
        "CLASSIFICATION_TYPE": "U",
        "NORAD_CAT_ID": 66174,
        "ELEMENT_SET_NO": 999,
        "REV_AT_EPOCH": 2918,
        "BSTAR": 0.00015433,
        "MEAN_MOTION_DOT": 0.00013891,
        "MEAN_MOTION_DDOT": 0
    },
    {
        "OBJECT_NAME": "SZ-21 MODULE",
        "OBJECT_ID": "2025-246C",
        "EPOCH": "2026-05-02T08:32:20.003712",
        "MEAN_MOTION": 15.72755904,
        "ECCENTRICITY": 0.0003198,
        "INCLINATION": 41.4736,
        "RA_OF_ASC_NODE": 231.9511,
        "ARG_OF_PERICENTER": 8.3344,
        "MEAN_ANOMALY": 351.7552,
        "EPHEMERIS_TYPE": 0,
        "CLASSIFICATION_TYPE": "U",
        "NORAD_CAT_ID": 66515,
        "ELEMENT_SET_NO": 999,
        "REV_AT_EPOCH": 2651,
        "BSTAR": 0.0003149,
        "MEAN_MOTION_DOT": 0.00043723,
        "MEAN_MOTION_DDOT": 0
    }
]