{"fetched_at":"2026-05-03T02:44:20Z","count":17177,"tles":[{"name":"XRISM","line1":"1 57800U 23137A   26122.18599811  .00006373  00000+0  35557-3 0  9997","line2":"2 57800  31.0022 297.4864 0007612 220.4009 139.6064 15.12074389145899","category":"Other"},{"name":"ACS3","line1":"1 59588U 24077B   26122.38008220  .00043871  00000+0  33819-1 0  9998","line2":"2 59588  97.1807  51.4320 0053853 342.4802  17.4504 13.91963060101664","category":"Other"},{"name":"HTV-X1","line1":"1 66174U 25241A   26122.39524355  .00013891  00000+0  15433-3 0  9997","line2":"2 66174  51.6342 171.9506 0007326  16.4549 343.6682 15.63190788 29183","category":"Other"},{"name":"SZ-21 MODULE","line1":"1 66515U 25246C   26122.35578708  .00043723  00000+0  31490-3 0  9996","line2":"2 66515  41.4736 231.9511 0003198   8.3344 351.7552 15.72755904 26512","category":"Other"},{"name":"GSLV R/B","line1":"1 54149U 22138AN  26121.79845326  .00002413  00000+0  20636-3 0  9994","line2":"2 54149  87.3801 148.5638 0019609 324.4932  35.4993 14.97052764191873","category":"Other"}]}